{
  "type": "FeatureCollection",
  "features": [
        {
    "type": "Feature",
    "properties": {
      "kind": "article",
      "title": "Über den Wolken von Antalya",
      "url": "/posts/turkey/2026-02-23_geyikbayiri/"
    },
    "geometry": {
      "type": "Point",
      "coordinates": [30.46397160269388,36.86667285399578]
    }
  },
        {
    "type": "Feature",
    "properties": {
      "kind": "article",
      "title": "Izmir egal ...",
      "url": "/posts/turkey/2026-02-05_izmir/"
    },
    "geometry": {
      "type": "Point",
      "coordinates": [27.143424,38.420486]
    }
  },
        {
    "type": "Feature",
    "properties": {
      "kind": "article",
      "title": "Reise in eine andere Welt",
      "url": "/posts/turkey/2026-01-26_istanbul/"
    },
    "geometry": {
      "type": "Point",
      "coordinates": [28.977545,41.036767]
    }
  }]
}
