{
  "type": "FeatureCollection",
  "features": [
        {
    "type": "Feature",
    "properties": {
      "kind": "article",
      "title": "Hinter glänzenden Fassaden",
      "url": "/posts/azerbaijan/2026-06-30_baku/"
    },
    "geometry": {
      "type": "Point",
      "coordinates": [49.95521882274732,40.406443]
    }
  },
        {
    "type": "Feature",
    "properties": {
      "kind": "article",
      "title": "Gemeinschaft am Fuße des Talisch Gebirges",
      "url": "/posts/azerbaijan/2026-06-20_lankaran/"
    },
    "geometry": {
      "type": "Point",
      "coordinates": [48.731148,38.684735]
    }
  }]
}
