{
  "type": "FeatureCollection",
  "features": [
        {
    "type": "Feature",
    "properties": {
      "kind": "article",
      "title": "Über alle Berge nach Armenien",
      "url": "/posts/georgia/2026-05-17_transitarmenia/"
    },
    "geometry": {
      "type": "Point",
      "coordinates": [42.978242,41.646084]
    }
  },
        {
    "type": "Feature",
    "properties": {
      "kind": "article",
      "title": "Ruhe im Schatten des Berges Gomi",
      "url": "/posts/georgia/2026-05-10_gomi/"
    },
    "geometry": {
      "type": "Point",
      "coordinates": [42.095428,41.89607]
    }
  },
        {
    "type": "Feature",
    "properties": {
      "kind": "article",
      "title": "Unter ProfiköchInnen",
      "url": "/posts/georgia/2026-05-03_telavi/"
    },
    "geometry": {
      "type": "Point",
      "coordinates": [45.483299,41.917391]
    }
  },
        {
    "type": "Feature",
    "properties": {
      "kind": "article",
      "title": "Unser Tbilisi-Flash",
      "url": "/posts/georgia/2026-04-20_tbilisi/"
    },
    "geometry": {
      "type": "Point",
      "coordinates": [44.7996229,41.6905631]
    }
  },
        {
    "type": "Feature",
    "properties": {
      "kind": "article",
      "title": "Zome in Zugdidi",
      "url": "/posts/georgia/2026-04-15_zugdidi/"
    },
    "geometry": {
      "type": "Point",
      "coordinates": [41.84596128550494,42.50248]
    }
  },
        {
    "type": "Feature",
    "properties": {
      "kind": "article",
      "title": "Erste Schritte in Georgien",
      "url": "/posts/georgia/2026-04-03_batumi-kutaisi/"
    },
    "geometry": {
      "type": "Point",
      "coordinates": [41.631233,41.616199]
    }
  }]
}
