{{- $rp := "geojson/resolve-place.html" -}}

{
  "type": "FeatureCollection",
  "features": [
    {
      "type": "Feature",
      "properties": {
        "kind": "route",
        "style": "linear",
        "group": "route",
        "cities": ["Lausanne", "Überlingen", "Mannheim", "Brussels"]
      },
      "geometry": {
        "type": "LineString",
        "coordinates": [
          {{ partial $rp "Switzerland-Lausanne-Home" }},
          {{ partial $rp "Germany-Deisendorf-Home" }},
          {{ partial $rp "Germany-Mannheim-Nick" }},
          {{ partial $rp "Belgium-Brussels-CS_Barbara" }}
        ]
      }
    },
    {
      "type": "Feature",
      "properties": {
        "kind": "route",
        "style": "geodesic",
        "group": "route",
        "cities": ["Brussels, BE", "Casablanca, MA"]
      },
      "geometry": {
        "type": "LineString",
        "coordinates": [
          {{ partial $rp "Belgium-Brussels-CS_Barbara" }},
          {{ partial $rp "Marocco-Casablanca-Airport" }}
        ]
      }
    },
    {
      "type": "Feature",
      "properties": {
        "kind": "route",
        "style": "geodesic",
        "group": "route",
        "cities": ["Casablanca, MA", "Douala, CM"]
      },
      "geometry": {
        "type": "LineString",
        "coordinates": [
          {{ partial $rp "Marocco-Casablanca-Airport" }},
          {{ partial $rp "Cameroon-Douala-Airport" }}
        ]
      }
    },
    {
      "type": "Feature",
      "properties": {
        "kind": "route",
        "style": "linear",
        "group": "route",
        "cities": ["Douala", "Yaoundé", "Somalomo", "Bengbis", "Sangmelima", "Ebolowa", "Akom II", "Kribi", "Douala"]
      },
      "geometry": {
        "type": "LineString",
        "coordinates": [
          {{ partial $rp "Cameroon-Douala-Airport" }},
          {{ partial $rp "Cameroon-Yaounde-Home" }},
          {{ partial $rp "Cameroon-Somalomo-Auberge" }},
          [12.4467, 3.4394],
          [11.9833, 2.9333],
          {{ partial $rp "Cameroon-Ebolowa-Hotel" }},
          [10.5667, 2.7833],
          {{ partial $rp "Cameroon-Kribi-Auberge" }},
          {{ partial $rp "Cameroon-Douala-Airport" }}
        ]
      }
    },
    {
      "type": "Feature",
      "properties": {
        "kind": "route",
        "style": "geodesic",
        "group": "route",
        "cities": ["Douala, CM", "Algiers, DZ"]
      },
      "geometry": {
        "type": "LineString",
        "coordinates": [
          {{ partial $rp "Cameroon-Douala-Airport" }},
          {{ partial $rp "Algeria-Algier-Airport" }}
        ]
      }
    },
    {
      "type": "Feature",
      "properties": {
        "kind": "route",
        "style": "geodesic",
        "group": "route",
        "cities": ["Algiers, DZ", "Istanbul, TR"]
      },
      "geometry": {
        "type": "LineString",
        "coordinates": [
          {{ partial $rp "Algeria-Algier-Airport" }},
          {{ partial $rp "Turkey-Istanbul-Hotel" }}
        ]
      }
    },
    {
      "type": "Feature",
      "properties": {
        "kind": "route",
        "style": "linear",
        "group": "route",
        "cities": ["Istanbul, TR", "Izmir, TR", "Geyikbayiri, TR"]
      },
      "geometry": {
        "type": "LineString",
        "coordinates": [
          {{ partial $rp "Turkey-Istanbul-Hotel" }},
          {{ partial $rp "Turkey-Izmir-WA_Hostel" }},
          {{ partial $rp "Turkey-Geyikbayiri-WA_Hotel" }},
          {{ partial $rp "Turkey-Göreme-WA_LPA" }},
          {{ partial $rp "Turkey-Gaziantep-CS_Sinan" }},
          {{ partial $rp "Turkey-Sanliurfa-Hotel" }},
          {{ partial $rp "Turkey-Adiyaman-CS_Yetkin" }},
          {{ partial $rp "Turkey-Mardin-CS_Jiyan" }},
          {{ partial $rp "Turkey-Van-Hotel" }},
          {{ partial $rp "Turkey-Kars-Hotel" }},
          {{ partial $rp "Georgia-Batumi-AirBnB" }},
          [41.77380, 41.99570],
          {{ partial $rp "Georgia-Kutaisi-CS_Dima" }},
          {{ partial $rp "Georgia-Zugdidi-WA_Zome" }},
          {{ partial $rp "Georgia-Tbilisi-Hostel" }},
          {{ partial $rp "Georgia-Telavi-WA_Guesthouse" }},
          {{ partial $rp "Georgia-Gomi-WA_DEC" }}
        ]
      }
    },
    {{- /* Individual Stops follow... */ -}}
    {
      "type": "Feature",
      "properties": { "kind": "stop", "group": "stop", "city": "Lausanne" },
      "geometry": { "type": "Point", "coordinates": {{ partial $rp "Switzerland-Lausanne-Home" }} }
    },
    {
      "type": "Feature",
      "properties": { "kind": "stop", "group": "stop", "city": "Deisendorf" },
      "geometry": { "type": "Point", "coordinates": {{ partial $rp "Germany-Deisendorf-Home" }} }
    },
    {
      "type": "Feature",
      "properties": { "kind": "stop", "group": "stop", "city": "Mannheim" },
      "geometry": { "type": "Point", "coordinates": {{ partial $rp "Germany-Mannheim-Nick" }} }
    },
    {
      "type": "Feature",
      "properties": { "kind": "stop", "group": "stop", "city": "Brussels" },
      "geometry": { "type": "Point", "coordinates": {{ partial $rp "Belgium-Brussels-CS_Barbara" }} }
    },
    {
      "type": "Feature",
      "properties": { "kind": "stop", "group": "stop", "city": "Douala" },
      "geometry": { "type": "Point", "coordinates": {{ partial $rp "Cameroon-Douala-Airport" }} }
    },
    {
      "type": "Feature",
      "properties": { "kind": "stop", "group": "stop", "city": "Yaoundé" },
      "geometry": { "type": "Point", "coordinates": {{ partial $rp "Cameroon-Yaounde-Home" }} }
    },
    {
      "type": "Feature",
      "properties": { "kind": "stop", "group": "stop", "city": "Bafang" },
      "geometry": { "type": "Point", "coordinates": {{ partial $rp "Cameroon-Bafang-Familie_Sandrine" }} }
    },
    {
      "type": "Feature",
      "properties": { "kind": "stop", "group": "stop", "city": "Somalomo" },
      "geometry": { "type": "Point", "coordinates": {{ partial $rp "Cameroon-Somalomo-Auberge" }} }
    },
    {
      "type": "Feature",
      "properties": { "kind": "stop", "group": "stop", "city": "Ebolowa" },
      "geometry": { "type": "Point", "coordinates": {{ partial $rp "Cameroon-Ebolowa-Hotel" }} }
    },
    {
      "type": "Feature",
      "properties": { "kind": "stop", "group": "stop", "city": "Kribi" },
      "geometry": { "type": "Point", "coordinates": {{ partial $rp "Cameroon-Kribi-Auberge" }} }
    },
    {
      "type": "Feature",
      "properties": { "kind": "stop", "group": "stop", "city": "Istanbul" },
      "geometry": { "type": "Point", "coordinates": {{ partial $rp "Turkey-Istanbul-Hotel" }} }
    },
    {
      "type": "Feature",
      "properties": { "kind": "stop", "group": "stop", "city": "Izmir" },
      "geometry": { "type": "Point", "coordinates": {{ partial $rp "Turkey-Izmir-WA_Hostel" }} }
    },
    {
      "type": "Feature",
      "properties": { "kind": "stop", "group": "stop", "city": "Geyikbayiri"},
      "geometry": { "type": "Point", "coordinates": {{ partial $rp "Turkey-Geyikbayiri-WA_Hotel" }} }
    },
    {
      "type": "Feature",
      "properties": { "kind": "stop", "group": "stop", "city": "Göreme"},
      "geometry": { "type": "Point", "coordinates": {{ partial $rp "Turkey-Göreme-WA_LPA" }} }
    },
    {
      "type": "Feature",
      "properties": { "kind": "stop", "group": "stop", "city": "Gaziantep"},
      "geometry": { "type": "Point", "coordinates": {{ partial $rp "Turkey-Gaziantep-CS_Sinan" }} }
    },
    {
      "type": "Feature",
      "properties": { "kind": "stop", "group": "stop", "city": "Sanliurfa"},
      "geometry": { "type": "Point", "coordinates": {{ partial $rp "Turkey-Sanliurfa-Hotel" }} }
    },
    {
      "type": "Feature",
      "properties": { "kind": "stop", "group": "stop", "city": "Adiyaman"},
      "geometry": { "type": "Point", "coordinates": {{ partial $rp "Turkey-Adiyaman-CS_Yetkin" }} }
    },
    {
      "type": "Feature",
      "properties": { "kind": "stop", "group": "stop", "city": "Mardin"},
      "geometry": { "type": "Point", "coordinates": {{ partial $rp "Turkey-Mardin-CS_Jiyan" }} }
    },
    {
      "type": "Feature",
      "properties": { "kind": "stop", "group": "stop", "city": "Van"},
      "geometry": { "type": "Point", "coordinates": {{ partial $rp "Turkey-Van-Hotel" }} }
    },
    {
      "type": "Feature",
      "properties": { "kind": "stop", "group": "stop", "city": "Kars"},
      "geometry": { "type": "Point", "coordinates": {{ partial $rp "Turkey-Kars-Hotel" }} }
    },
    {
      "type": "Feature",
      "properties": { "kind": "stop", "group": "stop", "city": "Batumi"},
      "geometry": { "type": "Point", "coordinates": {{ partial $rp "Georgia-Batumi-AirBnB" }} }
    },
    {
      "type": "Feature",
      "properties": { "kind": "stop", "group": "stop", "city": "Kutaisi"},
      "geometry": { "type": "Point", "coordinates": {{ partial $rp "Georgia-Kutaisi-CS_Dima" }} }
    },
    {
      "type": "Feature",
      "properties": { "kind": "stop", "group": "stop", "city": "Zugdidi"},
      "geometry": { "type": "Point", "coordinates": {{ partial $rp "Georgia-Zugdidi-WA_Zome" }} }
    },
    {
      "type": "Feature",
      "properties": { "kind": "stop", "group": "stop", "city": "Tbilisi"},
      "geometry": { "type": "Point", "coordinates": {{ partial $rp "Georgia-Tbilisi-Hostel" }} }
    },
    {
      "type": "Feature",
      "properties": { "kind": "stop", "group": "stop", "city": "Telavi"},
      "geometry": { "type": "Point", "coordinates": {{ partial $rp "Georgia-Telavi-WA_Guesthouse" }} }
    },
    {
      "type": "Feature",
      "properties": { "kind": "stop", "group": "stop", "city": "Gomi"},
      "geometry": { "type": "Point", "coordinates": {{ partial $rp "Georgia-Gomi-WA_DEC" }} }
    }
  ]
}
